{
  "type": "FeatureCollection",
  "features": [
    {
      "type": "Feature",
      "properties": {
        "norad_id": 43262,
        "name": "GAOFEN-1 04",
        "group": "resource",
        "lat": 37.133287212253634,
        "lon": 46.14294098062347,
        "alt_km": 637.5145824502388,
        "timestamp": "2025-12-20T11:30:28.028733+00:00",
        "meta_object_name": "GAOFEN-1 04",
        "meta_object_id": "2018-031D",
        "meta_epoch": "2025-12-20T04:49:55.420032",
        "meta_mean_motion": 14.76421514,
        "meta_eccentricity": 7.08e-05,
        "meta_inclination": 98.0805,
        "meta_ra_of_asc_node": 52.0403,
        "meta_arg_of_pericenter": 53.6718,
        "meta_mean_anomaly": 306.4556,
        "meta_ephemeris_type": 0,
        "meta_classification_type": "U",
        "meta_norad_cat_id": 43262,
        "meta_element_set_no": 999,
        "meta_rev_at_epoch": 41627,
        "meta_bstar": 0.00013866,
        "meta_mean_motion_dot": 9.12e-06,
        "meta_mean_motion_ddot": 0,
        "tle_line1": "1 43262U 18031D   25354.20133588  .00000912  00000+0  13866-3 0  9997",
        "tle_line2": "2 43262  98.0805  52.0403 0000708  53.6718 306.4556 14.76421514416272"
      },
      "geometry": {
        "type": "Point",
        "coordinates": [
          46.14294098062347,
          37.133287212253634
        ]
      }
    },
    {
      "type": "Feature",
      "properties": {
        "norad_id": 43437,
        "name": "SENTINEL-3B",
        "group": "resource",
        "lat": -77.81007820498917,
        "lon": -165.08827661841391,
        "alt_km": 811.1190038415361,
        "timestamp": "2025-12-20T11:30:28.028743+00:00",
        "meta_object_name": "SENTINEL-3B",
        "meta_object_id": "2018-039A",
        "meta_epoch": "2025-12-20T01:52:15.629952",
        "meta_mean_motion": 14.26736631,
        "meta_eccentricity": 0.0001626,
        "meta_inclination": 98.6258,
        "meta_ra_of_asc_node": 59.1578,
        "meta_arg_of_pericenter": 94.4485,
        "meta_mean_anomaly": 265.6881,
        "meta_ephemeris_type": 0,
        "meta_classification_type": "U",
        "meta_norad_cat_id": 43437,
        "meta_element_set_no": 999,
        "meta_rev_at_epoch": 39858,
        "meta_bstar": 5.9719e-05,
        "meta_mean_motion_dot": 1.01e-06,
        "meta_mean_motion_ddot": 0,
        "tle_line1": "1 43437U 18039A   25354.07795868  .00000101  00000+0  59719-4 0  9997",
        "tle_line2": "2 43437  98.6258  59.1578 0001626  94.4485 265.6881 14.26736631398583"
      },
      "geometry": {
        "type": "Point",
        "coordinates": [
          -165.08827661841391,
          -77.81007820498917
        ]
      }
    },
    {
      "type": "Feature",
      "properties": {
        "norad_id": 43461,
        "name": "GAOFEN-5 01",
        "group": "resource",
        "lat": 70.6615876105417,
        "lon": 162.5906938813141,
        "alt_km": 685.3574693852561,
        "timestamp": "2025-12-20T11:30:28.028753+00:00",
        "meta_object_name": "GAOFEN-5 01",
        "meta_object_id": "2018-043A",
        "meta_epoch": "2025-12-20T04:26:24.959040",
        "meta_mean_motion": 14.60417213,
        "meta_eccentricity": 5.41e-05,
        "meta_inclination": 98.4336,
        "meta_ra_of_asc_node": 317.2825,
        "meta_arg_of_pericenter": 293.9801,
        "meta_mean_anomaly": 66.1342,
        "meta_ephemeris_type": 0,
        "meta_classification_type": "U",
        "meta_norad_cat_id": 43461,
        "meta_element_set_no": 999,
        "meta_rev_at_epoch": 40556,
        "meta_bstar": 7.4172e-05,
        "meta_mean_motion_dot": 3.1e-06,
        "meta_mean_motion_ddot": 0,
        "tle_line1": "1 43461U 18043A   25354.18501110  .00000310  00000+0  74172-4 0  9998",
        "tle_line2": "2 43461  98.4336 317.2825 0000541 293.9801  66.1342 14.60417213405564"
      },
      "geometry": {
        "type": "Point",
        "coordinates": [
          162.5906938813141,
          70.6615876105417
        ]
      }
    },
    {
      "type": "Feature",
      "properties": {
        "norad_id": 43484,
        "name": "GAOFEN-6",
        "group": "resource",
        "lat": -12.179597499360181,
        "lon": -123.20918089379562,
        "alt_km": 652.5263018577125,
        "timestamp": "2025-12-20T11:30:28.028763+00:00",
        "meta_object_name": "GAOFEN-6",
        "meta_object_id": "2018-048A",
        "meta_epoch": "2025-12-20T04:08:07.571904",
        "meta_mean_motion": 14.76579262,
        "meta_eccentricity": 0.0012861,
        "meta_inclination": 97.803,
        "meta_ra_of_asc_node": 58.19,
        "meta_arg_of_pericenter": 41.7379,
        "meta_mean_anomaly": 318.481,
        "meta_ephemeris_type": 0,
        "meta_classification_type": "U",
        "meta_norad_cat_id": 43484,
        "meta_element_set_no": 999,
        "meta_rev_at_epoch": 40697,
        "meta_bstar": 9.7697e-05,
        "meta_mean_motion_dot": 6.33e-06,
        "meta_mean_motion_ddot": 0,
        "tle_line1": "1 43484U 18048A   25354.17230986  .00000633  00000+0  97697-4 0  9992",
        "tle_line2": "2 43484  97.8030  58.1900 0012861  41.7379 318.4810 14.76579262406974"
      },
      "geometry": {
        "type": "Point",
        "coordinates": [
          -123.20918089379562,
          -12.179597499360181
        ]
      }
    },
    {
      "type": "Feature",
      "properties": {
        "norad_id": 43585,
        "name": "GAOFEN-11 01",
        "group": "resource",
        "lat": -42.142163483056606,
        "lon": -129.17771138091803,
        "alt_km": 423.3799646361567,
        "timestamp": "2025-12-20T11:30:28.028773+00:00",
        "meta_object_name": "GAOFEN-11 01",
        "meta_object_id": "2018-063A",
        "meta_epoch": "2025-12-20T04:21:01.049760",
        "meta_mean_motion": 15.49423648,
        "meta_eccentricity": 0.0003931,
        "meta_inclination": 97.1561,
        "meta_ra_of_asc_node": 57.0547,
        "meta_arg_of_pericenter": 273.8961,
        "meta_mean_anomaly": 86.1841,
        "meta_ephemeris_type": 0,
        "meta_classification_type": "U",
        "meta_norad_cat_id": 43585,
        "meta_element_set_no": 999,
        "meta_rev_at_epoch": 41257,
        "meta_bstar": 0.0002767,
        "meta_mean_motion_dot": 0.00015117,
        "meta_mean_motion_ddot": 0,
        "tle_line1": "1 43585U 18063A   25354.18126215  .00015117  00000+0  27670-3 0  9997",
        "tle_line2": "2 43585  97.1561  57.0547 0003931 273.8961  86.1841 15.49423648412579"
      },
      "geometry": {
        "type": "Point",
        "coordinates": [
          -129.17771138091803,
          -42.142163483056606
        ]
      }
    },
    {
      "type": "Feature",
      "properties": {
        "norad_id": 43613,
        "name": "ICESAT-2",
        "group": "resource",
        "lat": 87.79232816899254,
        "lon": 128.14741662844375,
        "alt_km": 471.93572850855526,
        "timestamp": "2025-12-20T11:30:28.028783+00:00",
        "meta_object_name": "ICESAT-2",
        "meta_object_id": "2018-070A",
        "meta_epoch": "2025-12-20T03:15:13.582368",
        "meta_mean_motion": 15.28225301,
        "meta_eccentricity": 0.0002801,
        "meta_inclination": 92.0048,
        "meta_ra_of_asc_node": 242.7331,
        "meta_arg_of_pericenter": 120.7355,
        "meta_mean_anomaly": 239.417,
        "meta_ephemeris_type": 0,
        "meta_classification_type": "U",
        "meta_norad_cat_id": 43613,
        "meta_element_set_no": 999,
        "meta_rev_at_epoch": 40511,
        "meta_bstar": 0.00028607,
        "meta_mean_motion_dot": 7.866e-05,
        "meta_mean_motion_ddot": 0,
        "tle_line1": "1 43613U 18070A   25354.13557387  .00007866  00000+0  28607-3 0  9993",
        "tle_line2": "2 43613  92.0048 242.7331 0002801 120.7355 239.4170 15.28225301405114"
      },
      "geometry": {
        "type": "Point",
        "coordinates": [
          128.14741662844375,
          87.79232816899254
        ]
      }
    },
    {
      "type": "Feature",
      "properties": {
        "norad_id": 43719,
        "name": "HYSIS",
        "group": "resource",
        "lat": -72.62568751093715,
        "lon": 84.1648197451702,
        "alt_km": 641.2760186780833,
        "timestamp": "2025-12-20T11:30:28.028793+00:00",
        "meta_object_name": "HYSIS",
        "meta_object_id": "2018-096A",
        "meta_epoch": "2025-12-20T03:43:26.661216",
        "meta_mean_motion": 14.78666197,
        "meta_eccentricity": 0.0001051,
        "meta_inclination": 98.0096,
        "meta_ra_of_asc_node": 57.0971,
        "meta_arg_of_pericenter": 53.0013,
        "meta_mean_anomaly": 307.1294,
        "meta_ephemeris_type": 0,
        "meta_classification_type": "U",
        "meta_norad_cat_id": 43719,
        "meta_element_set_no": 999,
        "meta_rev_at_epoch": 38096,
        "meta_bstar": 0.00020355,
        "meta_mean_motion_dot": 1.44e-05,
        "meta_mean_motion_ddot": 0,
        "tle_line1": "1 43719U 18096A   25354.15516969  .00001440  00000+0  20355-3 0  9995",
        "tle_line2": "2 43719  98.0096  57.0971 0001051  53.0013 307.1294 14.78666197380963"
      },
      "geometry": {
        "type": "Point",
        "coordinates": [
          84.1648197451702,
          -72.62568751093715
        ]
      }
    }
  ]
}